{
    "links": {
        "self": "http://www.neowsapp.com/rest/v1/neo/3780784?api_key=iIulBulltgU6a56xZRHN4H3l9WmuAYTsLGpBGhQ2"
    },
    "id": "3780784",
    "neo_reference_id": "3780784",
    "name": "(2017 QA3)",
    "designation": "2017 QA3",
    "nasa_jpl_url": "http://ssd.jpl.nasa.gov/sbdb.cgi?sstr=3780784",
    "absolute_magnitude_h": 25.0,
    "estimated_diameter": {
        "kilometers": {
            "estimated_diameter_min": 0.02658,
            "estimated_diameter_max": 0.0594346868
        },
        "meters": {
            "estimated_diameter_min": 26.58,
            "estimated_diameter_max": 59.4346868419
        },
        "miles": {
            "estimated_diameter_min": 0.0165160412,
            "estimated_diameter_max": 0.0369309908
        },
        "feet": {
            "estimated_diameter_min": 87.2047272,
            "estimated_diameter_max": 194.9956979785
        }
    },
    "is_potentially_hazardous_asteroid": false,
    "close_approach_data": [
        {
            "close_approach_date": "1900-01-04",
            "close_approach_date_full": "1900-Jan-04 11:44",
            "epoch_date_close_approach": -2208687360000,
            "relative_velocity": {
                "kilometers_per_second": "8.6153723758",
                "kilometers_per_hour": "31015.3405528914",
                "miles_per_hour": "19271.7264674341"
            },
            "miss_distance": {
                "astronomical": "0.467586077",
                "lunar": "181.890983953",
                "kilometers": "69949881.16085599",
                "miles": "43464840.661913062"
            },
            "orbiting_body": "Earth"
        },
        {
            "close_approach_date": "1900-08-01",
            "close_approach_date_full": "1900-Aug-01 20:05",
            "epoch_date_close_approach": -2190599700000,
            "relative_velocity": {
                "kilometers_per_second": "9.1185425608",
                "kilometers_per_hour": "32826.753218771",
                "miles_per_hour": "20397.2678541858"
            },
            "miss_distance": {
                "astronomical": "0.0498688625",
                "lunar": "19.3989875125",
                "kilometers": "7460275.609322875",
                "miles": "4635600.307990675"
            },
            "orbiting_body": "Earth"
        },
        {
            "close_approach_date": "2013-08-19",
            "close_approach_date_full": "2013-Aug-19 14:45",
            "epoch_date_close_approach": 1376923500000,
            "relative_velocity": {
                "kilometers_per_second": "18.4597065874",
                "kilometers_per_hour": "66454.9437145514",
                "miles_per_hour": "41292.5176653"
            },
            "miss_distance": {
                "astronomical": "0.3187608551",
                "lunar": "123.9979726339",
                "kilometers": "47685944.962338637",
                "miles": "29630672.2070697106"
            },
            "orbiting_body": "Earth"
        },
        {
            "close_approach_date": "2017-01-04",
            "close_approach_date_full": "2017-Jan-04 22:48",
            "epoch_date_close_approach": 1483570080000,
            "relative_velocity": {
                "kilometers_per_second": "8.6742852612",
                "kilometers_per_hour": "31227.4269402906",
                "miles_per_hour": "19403.50870076"
            },
            "miss_distance": {
                "astronomical": "0.4702966424",
                "lunar": "182.9453938936",
                "kilometers": "70355375.971191688",
                "miles": "43716803.4533857744"
            },
            "orbiting_body": "Earth"
        },
        {
            "close_approach_date": "2017-08-03",
            "close_approach_date_full": "2017-Aug-03 05:06",
            "epoch_date_close_approach": 1501736760000,
            "relative_velocity": {
                "kilometers_per_second": "9.3577605394",
                "kilometers_per_hour": "33687.9379417236",
                "miles_per_hour": "20932.3745505115"
            },
            "miss_distance": {
                "astronomical": "0.0421514784",
                "lunar": "16.3969250976",
                "kilometers": "6305771.385991008",
                "miles": "3918224.6487635904"
            },
            "orbiting_body": "Earth"
        }
    ],
    "orbital_data": {
        "orbit_id": "2",
        "orbit_determination_date": "2019-07-17 06:12:06",
        "first_observation_date": "2017-08-18",
        "last_observation_date": "2017-08-21",
        "data_arc_in_days": 3,
        "observations_used": 12,
        "orbit_uncertainty": "8",
        "minimum_orbit_intersection": ".0364082",
        "jupiter_tisserand_invariant": "5.240",
        "epoch_osculation": "2457984.5",
        "eccentricity": ".2943064849129628",
        "semi_major_axis": "1.200156506311263",
        "inclination": "9.940784198705929",
        "ascending_node_longitude": "142.0786824249401",
        "orbital_period": "480.2365967532398",
        "perihelion_distance": ".8469426635933733",
        "perihelion_argument": "91.76549621348157",
        "aphelion_distance": "1.553370349029153",
        "perihelion_time": "2457906.114984400211",
        "mean_anomaly": "58.75979841333005",
        "mean_motion": ".7496304997034181",
        "equinox": "J2000",
        "orbit_class": {
            "orbit_class_type": "APO",
            "orbit_class_description": "Near-Earth asteroid orbits which cross the Earth’s orbit similar to that of 1862 Apollo",
            "orbit_class_range": "a (semi-major axis) > 1.0 AU; q (perihelion) < 1.017 AU"
        }
    },
    "is_sentry_object": false
}